ONEWEB-0358             
1 49284U 21090F   26014.84867648 -.00000033  00000+0 -11274-3 0  9998
2 49284  87.9231 305.0256 0001826  78.8880 281.2458 13.20771555210319
ONEWEB-0359             
1 49285U 21090G   26014.84551862 -.00000065  00000+0 -19160-3 0  9994
2 49285  87.9230 305.0244 0001855  89.1383 270.9963 13.20771657210297
ONEWEB-0360             
1 49286U 21090H   26014.83604983  .00000037  00000+0  58734-4 0  9995
2 49286  87.9225 305.0331 0001709  80.8924 279.2403 13.20772457209609
ONEWEB-0361             
1 49287U 21090J   26014.81711377  .00000055  00000+0  10321-3 0  9999
2 49287  87.9230 305.0343 0001923  76.1125 284.0222 13.20773191210058
ONEWEB-0362             
1 49288U 21090K   26014.95149790 -.00000100  00000+0 -28168-3 0  9990
2 49288  87.9223 335.4750 0001505  83.0020 277.1283 13.19725395206705
ONEWEB-0363             
1 49289U 21090L   26014.83289147  .00000040  00000+0  65349-4 0  9993
2 49289  87.9231 305.0311 0002086  76.5697 283.5668 13.20771490210064
ONEWEB-0364             
1 49290U 21090M   26014.79501463  .00000002  00000+0 -27424-4 0  9999
2 49290  87.9221 305.0587 0001838  76.5100 283.6238 13.20771709211195
ONEWEB-0365             
1 49291U 21090N   26014.96096860 -.00000078  00000+0 -22670-3 0  9990
2 49291  87.9244 335.4444 0001666  78.4974 281.6346 13.19727205206214
ONEWEB-0366             
1 49292U 21090P   26014.83019342  .00000245  00000+0  62636-3 0  9997
2 49292  87.9017 320.2782 0001767  79.4270 280.7059 13.14500868207415
ONEWEB-0367             
1 49293U 21090Q   26014.83131491  .00000021  00000+0  20268-4 0  9996
2 49293  87.9233 305.0310 0001519  75.8529 284.2773 13.20772395209581
ONEWEB-0368             
1 49294U 21090R   26014.80448289  .00000055  00000+0  10294-3 0  9994
2 49294  87.9224 305.0630 0002222  57.8677 302.2671 13.20773114210730
ONEWEB-0369             
1 49295U 21090S   26014.95622852 -.00000126  00000+0 -34781-3 0  9999
2 49295  87.9233 335.4690 0001751  77.2031 282.9297 13.19724121206207
ONEWEB-0370             
1 49296U 21090T   26014.84078485  .00000002  00000+0 -25879-4 0  9996
2 49296  87.9229 305.0319 0001555  86.6493 273.4818 13.20771709209621
ONEWEB-0371             
1 49297U 21090U   26014.81250195  .00000058  00000+0  11142-3 0  9991
2 49297  87.9235 335.4855 0001645  80.1600 279.9719 13.19725265206228
ONEWEB-0372             
1 49298U 21090V   26014.82959989 -.00000008  00000+0 -52604-4 0  9996
2 49298  87.9228 305.0333 0001694  73.0069 287.1250 13.20771668209593
ONEWEB-0373             
1 49299U 21090W   26014.85655931 -.00000085  00000+0 -24029-3 0  9994
2 49299  87.9220 305.0394 0001792  78.4894 281.6440 13.20772806210785
ONEWEB-0374             
1 49300U 21090X   26014.81750850  .00000073  00000+0  16277-3 0  9990
2 49300  87.9022 320.2610 0002275  74.1400 285.9980 13.14503791207411
