[{"OBJECT_NAME":"ONEWEB-0358","OBJECT_ID":"2021-090F","EPOCH":"2026-01-14T20:22:05.647872","MEAN_MOTION":13.20771555,"ECCENTRICITY":0.0001826,"INCLINATION":87.9231,"RA_OF_ASC_NODE":305.0256,"ARG_OF_PERICENTER":78.888,"MEAN_ANOMALY":281.2458,"EPHEMERIS_TYPE":0,"CLASSIFICATION_TYPE":"U","NORAD_CAT_ID":49284,"ELEMENT_SET_NO":999,"REV_AT_EPOCH":21031,"BSTAR":-0.00011274,"MEAN_MOTION_DOT":-3.3e-7,"MEAN_MOTION_DDOT":0},{"OBJECT_NAME":"ONEWEB-0359","OBJECT_ID":"2021-090G","EPOCH":"2026-01-14T20:17:32.808768","MEAN_MOTION":13.20771657,"ECCENTRICITY":0.0001855,"INCLINATION":87.923,"RA_OF_ASC_NODE":305.0244,"ARG_OF_PERICENTER":89.1383,"MEAN_ANOMALY":270.9963,"EPHEMERIS_TYPE":0,"CLASSIFICATION_TYPE":"U","NORAD_CAT_ID":49285,"ELEMENT_SET_NO":999,"REV_AT_EPOCH":21029,"BSTAR":-0.0001916,"MEAN_MOTION_DOT":-6.5e-7,"MEAN_MOTION_DDOT":0},{"OBJECT_NAME":"ONEWEB-0360","OBJECT_ID":"2021-090H","EPOCH":"2026-01-14T20:03:54.705312","MEAN_MOTION":13.20772457,"ECCENTRICITY":0.0001709,"INCLINATION":87.9225,"RA_OF_ASC_NODE":305.0331,"ARG_OF_PERICENTER":80.8924,"MEAN_ANOMALY":279.2403,"EPHEMERIS_TYPE":0,"CLASSIFICATION_TYPE":"U","NORAD_CAT_ID":49286,"ELEMENT_SET_NO":999,"REV_AT_EPOCH":20960,"BSTAR":5.8734e-5,"MEAN_MOTION_DOT":3.7e-7,"MEAN_MOTION_DDOT":0},{"OBJECT_NAME":"ONEWEB-0361","OBJECT_ID":"2021-090J","EPOCH":"2026-01-14T19:36:38.629728","MEAN_MOTION":13.20773191,"ECCENTRICITY":0.0001923,"INCLINATION":87.923,"RA_OF_ASC_NODE":305.0343,"ARG_OF_PERICENTER":76.1125,"MEAN_ANOMALY":284.0222,"EPHEMERIS_TYPE":0,"CLASSIFICATION_TYPE":"U","NORAD_CAT_ID":49287,"ELEMENT_SET_NO":999,"REV_AT_EPOCH":21005,"BSTAR":0.00010321,"MEAN_MOTION_DOT":5.5e-7,"MEAN_MOTION_DDOT":0},{"OBJECT_NAME":"ONEWEB-0362","OBJECT_ID":"2021-090K","EPOCH":"2026-01-14T22:50:09.418560","MEAN_MOTION":13.19725395,"ECCENTRICITY":0.0001505,"INCLINATION":87.9223,"RA_OF_ASC_NODE":335.475,"ARG_OF_PERICENTER":83.002,"MEAN_ANOMALY":277.1283,"EPHEMERIS_TYPE":0,"CLASSIFICATION_TYPE":"U","NORAD_CAT_ID":49288,"ELEMENT_SET_NO":999,"REV_AT_EPOCH":20670,"BSTAR":-0.00028168,"MEAN_MOTION_DOT":-1.0e-6,"MEAN_MOTION_DDOT":0},{"OBJECT_NAME":"ONEWEB-0363","OBJECT_ID":"2021-090L","EPOCH":"2026-01-14T19:59:21.823008","MEAN_MOTION":13.2077149,"ECCENTRICITY":0.0002086,"INCLINATION":87.9231,"RA_OF_ASC_NODE":305.0311,"ARG_OF_PERICENTER":76.5697,"MEAN_ANOMALY":283.5668,"EPHEMERIS_TYPE":0,"CLASSIFICATION_TYPE":"U","NORAD_CAT_ID":49289,"ELEMENT_SET_NO":999,"REV_AT_EPOCH":21006,"BSTAR":6.5349e-5,"MEAN_MOTION_DOT":4.0e-7,"MEAN_MOTION_DDOT":0},{"OBJECT_NAME":"ONEWEB-0364","OBJECT_ID":"2021-090M","EPOCH":"2026-01-14T19:04:49.264032","MEAN_MOTION":13.20771709,"ECCENTRICITY":0.0001838,"INCLINATION":87.9221,"RA_OF_ASC_NODE":305.0587,"ARG_OF_PERICENTER":76.51,"MEAN_ANOMALY":283.6238,"EPHEMERIS_TYPE":0,"CLASSIFICATION_TYPE":"U","NORAD_CAT_ID":49290,"ELEMENT_SET_NO":999,"REV_AT_EPOCH":21119,"BSTAR":-2.7424e-5,"MEAN_MOTION_DOT":2.0e-8,"MEAN_MOTION_DDOT":0},{"OBJECT_NAME":"ONEWEB-0365","OBJECT_ID":"2021-090N","EPOCH":"2026-01-14T23:03:47.687040","MEAN_MOTION":13.19727205,"ECCENTRICITY":0.0001666,"INCLINATION":87.9244,"RA_OF_ASC_NODE":335.4444,"ARG_OF_PERICENTER":78.4974,"MEAN_ANOMALY":281.6346,"EPHEMERIS_TYPE":0,"CLASSIFICATION_TYPE":"U","NORAD_CAT_ID":49291,"ELEMENT_SET_NO":999,"REV_AT_EPOCH":20621,"BSTAR":-0.0002267,"MEAN_MOTION_DOT":-7.8e-7,"MEAN_MOTION_DDOT":0},{"OBJECT_NAME":"ONEWEB-0366","OBJECT_ID":"2021-090P","EPOCH":"2026-01-14T19:55:28.711488","MEAN_MOTION":13.14500868,"ECCENTRICITY":0.0001767,"INCLINATION":87.9017,"RA_OF_ASC_NODE":320.2782,"ARG_OF_PERICENTER":79.427,"MEAN_ANOMALY":280.7059,"EPHEMERIS_TYPE":0,"CLASSIFICATION_TYPE":"U","NORAD_CAT_ID":49292,"ELEMENT_SET_NO":999,"REV_AT_EPOCH":20741,"BSTAR":0.00062636,"MEAN_MOTION_DOT":2.45e-6,"MEAN_MOTION_DDOT":0},{"OBJECT_NAME":"ONEWEB-0367","OBJECT_ID":"2021-090Q","EPOCH":"2026-01-14T19:57:05.608224","MEAN_MOTION":13.20772395,"ECCENTRICITY":0.0001519,"INCLINATION":87.9233,"RA_OF_ASC_NODE":305.031,"ARG_OF_PERICENTER":75.8529,"MEAN_ANOMALY":284.2773,"EPHEMERIS_TYPE":0,"CLASSIFICATION_TYPE":"U","NORAD_CAT_ID":49293,"ELEMENT_SET_NO":999,"REV_AT_EPOCH":20958,"BSTAR":2.0268e-5,"MEAN_MOTION_DOT":2.1e-7,"MEAN_MOTION_DDOT":0},{"OBJECT_NAME":"ONEWEB-0368","OBJECT_ID":"2021-090R","EPOCH":"2026-01-14T19:18:27.321696","MEAN_MOTION":13.20773114,"ECCENTRICITY":0.0002222,"INCLINATION":87.9224,"RA_OF_ASC_NODE":305.063,"ARG_OF_PERICENTER":57.8677,"MEAN_ANOMALY":302.2671,"EPHEMERIS_TYPE":0,"CLASSIFICATION_TYPE":"U","NORAD_CAT_ID":49294,"ELEMENT_SET_NO":999,"REV_AT_EPOCH":21073,"BSTAR":0.00010294,"MEAN_MOTION_DOT":5.5e-7,"MEAN_MOTION_DDOT":0},{"OBJECT_NAME":"ONEWEB-0369","OBJECT_ID":"2021-090S","EPOCH":"2026-01-14T22:56:58.144128","MEAN_MOTION":13.19724121,"ECCENTRICITY":0.0001751,"INCLINATION":87.9233,"RA_OF_ASC_NODE":335.469,"ARG_OF_PERICENTER":77.2031,"MEAN_ANOMALY":282.9297,"EPHEMERIS_TYPE":0,"CLASSIFICATION_TYPE":"U","NORAD_CAT_ID":49295,"ELEMENT_SET_NO":999,"REV_AT_EPOCH":20620,"BSTAR":-0.00034781,"MEAN_MOTION_DOT":-1.26e-6,"MEAN_MOTION_DDOT":0},{"OBJECT_NAME":"ONEWEB-0370","OBJECT_ID":"2021-090T","EPOCH":"2026-01-14T20:10:43.811040","MEAN_MOTION":13.20771709,"ECCENTRICITY":0.0001555,"INCLINATION":87.9229,"RA_OF_ASC_NODE":305.0319,"ARG_OF_PERICENTER":86.6493,"MEAN_ANOMALY":273.4818,"EPHEMERIS_TYPE":0,"CLASSIFICATION_TYPE":"U","NORAD_CAT_ID":49296,"ELEMENT_SET_NO":999,"REV_AT_EPOCH":20962,"BSTAR":-2.5879e-5,"MEAN_MOTION_DOT":2.0e-8,"MEAN_MOTION_DDOT":0},{"OBJECT_NAME":"ONEWEB-0371","OBJECT_ID":"2021-090U","EPOCH":"2026-01-14T19:30:00.168480","MEAN_MOTION":13.19725265,"ECCENTRICITY":0.0001645,"INCLINATION":87.9235,"RA_OF_ASC_NODE":335.4855,"ARG_OF_PERICENTER":80.16,"MEAN_ANOMALY":279.9719,"EPHEMERIS_TYPE":0,"CLASSIFICATION_TYPE":"U","NORAD_CAT_ID":49297,"ELEMENT_SET_NO":999,"REV_AT_EPOCH":20622,"BSTAR":0.00011142,"MEAN_MOTION_DOT":5.8e-7,"MEAN_MOTION_DDOT":0},{"OBJECT_NAME":"ONEWEB-0372","OBJECT_ID":"2021-090V","EPOCH":"2026-01-14T19:54:37.430496","MEAN_MOTION":13.20771668,"ECCENTRICITY":0.0001694,"INCLINATION":87.9228,"RA_OF_ASC_NODE":305.0333,"ARG_OF_PERICENTER":73.0069,"MEAN_ANOMALY":287.125,"EPHEMERIS_TYPE":0,"CLASSIFICATION_TYPE":"U","NORAD_CAT_ID":49298,"ELEMENT_SET_NO":999,"REV_AT_EPOCH":20959,"BSTAR":-5.2604e-5,"MEAN_MOTION_DOT":-8.0e-8,"MEAN_MOTION_DDOT":0},{"OBJECT_NAME":"ONEWEB-0373","OBJECT_ID":"2021-090W","EPOCH":"2026-01-14T20:33:26.724384","MEAN_MOTION":13.20772806,"ECCENTRICITY":0.0001792,"INCLINATION":87.922,"RA_OF_ASC_NODE":305.0394,"ARG_OF_PERICENTER":78.4894,"MEAN_ANOMALY":281.644,"EPHEMERIS_TYPE":0,"CLASSIFICATION_TYPE":"U","NORAD_CAT_ID":49299,"ELEMENT_SET_NO":999,"REV_AT_EPOCH":21078,"BSTAR":-0.00024029,"MEAN_MOTION_DOT":-8.5e-7,"MEAN_MOTION_DDOT":0},{"OBJECT_NAME":"ONEWEB-0374","OBJECT_ID":"2021-090X","EPOCH":"2026-01-14T19:37:12.734400","MEAN_MOTION":13.14503791,"ECCENTRICITY":0.0002275,"INCLINATION":87.9022,"RA_OF_ASC_NODE":320.261,"ARG_OF_PERICENTER":74.14,"MEAN_ANOMALY":285.998,"EPHEMERIS_TYPE":0,"CLASSIFICATION_TYPE":"U","NORAD_CAT_ID":49300,"ELEMENT_SET_NO":999,"REV_AT_EPOCH":20741,"BSTAR":0.00016277,"MEAN_MOTION_DOT":7.3e-7,"MEAN_MOTION_DDOT":0}]
